NORAD_CAT_ID,OBJECT_NAME,OBJECT_TYPE,EPOCH,MEAN_MOTION,ECCENTRICITY,INCLINATION,RA_OF_ASC_NODE,ARG_OF_PERICENTER,MEAN_ANOMALY,BSTAR,MEAN_MOTION_DOT,MEAN_MOTION_DDOT,TLE_LINE0,TLE_LINE1,TLE_LINE2,SEMIMAJOR_AXIS,PERIOD,APOGEE,PERIGEE,DECAYED
49181.0,STARLINK-3059,PAYLOAD,2022-04-15 06:00:00,14.98326473,0.0003164,69.9997,285.9706,278.4308,298.9036,0.00070977,8.385e-05,0.0,0 STARLINK-3059,1 49181U 21082BD  22105.25001157  .00008385  00000-0  70977-3 0  9994,2 49181  69.9997 285.9706 0003164 278.4308 298.9036 14.98326473 33782,6950.204000000002,96.107,574.268,569.87,0.0
49181.0,STARLINK-3059,PAYLOAD,2022-04-15 13:02:40,14.98333747,0.0003246,69.9997,285.2301,278.2007,81.8784,0.00028305,3.286e-05,0.0,0 STARLINK-3059,1 49181U 21082BD  22105.54352145  .00003286  00000-0  28305-3 0  9995,2 49181  69.9997 285.2301 0003246 278.2007  81.8784 14.98333747 33849,6950.181,96.107,574.302,569.79,0.0
49181.0,STARLINK-3059,PAYLOAD,2022-04-15 22:00:00,14.98326789,0.0003236,69.9999,284.2893,282.5172,289.8126,0.0036859,0.00044162,0.0,0 STARLINK-3059,1 49181U 21082BD  22105.91667824  .00044162  00000-0  36859-2 0  9999,2 49181  69.9999 284.2893 0003236 282.5172 289.8126 14.98326789  3560,6950.203,96.107,574.317,569.819,0.0
49181.0,STARLINK-3059,PAYLOAD,2022-04-16 14:00:01,14.98371018,0.0003147,70.0001,282.6118,276.028,291.2931,-0.0064337,-0.00076113,0.0,0 STARLINK-3059,1 49181U 21082BD  22106.58334491 -.00076113  00000-0 -64337-2 0  9999,2 49181  70.0001 282.6118 0003147 276.0280 291.2931 14.98371018 33983,6950.066,96.104,574.118,569.744,0.0
49181.0,STARLINK-3059,PAYLOAD,2022-04-16 22:00:01,14.98306982,0.0003184,70.0001,281.7674,281.7468,283.1392,0.003517,0.000421,0.0,0 STARLINK-3059,1 49181U 21082BD  22106.91668981  .00042100  00000-0  35170-2 0  9990,2 49181  70.0001 281.7674 0003184 281.7468 283.1392 14.98306982  3573,6950.264,96.108,574.342,569.9159999999998,0.0
49181.0,STARLINK-3059,PAYLOAD,2022-04-17 06:00:00,14.98311723,0.0003153,69.9999,280.9267,276.6438,285.6604,0.0019916,0.0002374,0.0,0 STARLINK-3059,1 49181U 21082BD  22107.25001157  .00023740  00000-0  19916-2 0  9993,2 49181  69.9999 280.9267 0003153 276.6438 285.6604 14.98311723 34083,6950.249,96.108,574.306,569.923,0.0
49181.0,STARLINK-3059,PAYLOAD,2022-04-17 14:00:01,14.98356351,0.0003179,70.0004,280.0862,275.1728,284.5953,-0.0029966,-0.00035691,0.0,0 STARLINK-3059,1 49181U 21082BD  22107.58334491 -.00035691  00000-0 -29966-2 0  9995,2 49181  70.0004 280.0862 0003179 275.1728 284.5953 14.98356351  3558,6950.111,96.105,574.186,569.7669999999998,0.0
49181.0,STARLINK-3059,PAYLOAD,2022-04-17 22:00:00,14.98316951,0.0003253,70.0003,279.2455,281.053,276.2206,0.0037099,0.0004444,0.0,0 STARLINK-3059,1 49181U 21082BD  22107.91667824  .00044440  00000-0  37099-2 0  9997,2 49181  70.0003 279.2455 0003253 281.0530 276.2206 14.98316951  3556,6950.233,96.108,574.359,569.837,0.0
49181.0,STARLINK-3059,PAYLOAD,2022-04-18 08:00:01,14.98304613,0.000322,70.0004,278.1948,274.6408,9.5029,0.0061788,0.00074371,0.0,0 STARLINK-3059,1 49181U 21082BD  22108.33334491  .00074371  00000-0  61788-2 0  9993,2 49181  70.0004 278.1948 0003220 274.6408   9.5029 14.98304613 34240,6950.271,96.109,574.374,569.898,0.0
49181.0,STARLINK-3059,PAYLOAD,2022-04-18 14:00:01,14.98371993,0.0003242,70.0008,277.5644,275.2151,277.0307,-0.0035732,-0.00042517,0.0,0 STARLINK-3059,1 49181U 21082BD  22108.58334491 -.00042517  00000-0 -35732-2 0  9999,2 49181  70.0008 277.5644 0003242 275.2151 277.0307 14.98371993  3585,6950.063,96.104,574.181,569.675,0.0
49181.0,STARLINK-3059,PAYLOAD,2022-04-18 22:00:00,14.98331422,0.0003222,70.0006,276.7238,281.1034,268.6609,0.00037408,4.373e-05,0.0,0 STARLINK-3059,1 49181U 21082BD  22108.91667824  .00004373  00000-0  37408-3 0  9994,2 49181  70.0006 276.7238 0003222 281.1034 268.6609 14.98331422 34338,6950.188,96.107,574.293,569.814,0.0
49181.0,STARLINK-3059,PAYLOAD,2022-04-19 14:00:01,14.98356069,0.0003174,70.0012,275.043,275.9524,268.7667,-0.0035784,-0.00042561,0.0,0 STARLINK-3059,1 49181U 21082BD  22109.58334491 -.00042561  00000-0 -35784-2 0  9996,2 49181  70.0012 275.0430 0003174 275.9524 268.7667 14.98356069  3595,6950.111999999999,96.105,574.183,569.771,0.0
49181.0,STARLINK-3059,PAYLOAD,2022-04-20 06:00:00,14.98323761,0.0003064,70.001,273.3621,276.6169,263.0961,0.00064068,7.559e-05,0.0,0 STARLINK-3059,1 49181U 21082BD  22110.25001157  .00007559  00000-0  64068-3 0  9996,2 49181  70.0010 273.3621 0003064 276.6169 263.0961 14.98323761 34533,6950.212,96.107,574.207,569.948,0.0
49181.0,STARLINK-3059,PAYLOAD,2022-04-20 14:00:01,14.98340034,0.0003034,70.0013,272.5217,276.9867,260.2016,-0.0034684,-0.00041246,0.0,0 STARLINK-3059,1 49181U 21082BD  22110.58334491 -.00041246  00000-0 -34684-2 0  9995,2 49181  70.0013 272.5217 0003034 276.9867 260.2016 14.98340034  3586,6950.1619999999975,96.106,574.136,569.918,0.0
49181.0,STARLINK-3059,PAYLOAD,2022-04-20 22:00:00,14.98308158,0.0003057,70.0009,271.6813,282.9006,251.769,0.0028097,0.00033574,0.0,0 STARLINK-3059,1 49181U 21082BD  22110.91667824  .00033574  00000-0  28097-2 0  9995,2 49181  70.0009 271.6813 0003057 282.9006 251.7690 14.98308158  3573,6950.26,96.108,574.25,570.001,0.0
49181.0,STARLINK-3059,PAYLOAD,2022-04-21 06:00:00,14.98311508,0.0003021,70.0008,270.8449,278.5583,253.5837,0.00019155,2.192e-05,0.0,0 STARLINK-3059,1 49181U 21082BD  22111.25001157  .00002192  00000-0  19155-3 0  9992,2 49181  70.0008 270.8449 0003021 278.5583 253.5837 14.98311508 34682,6950.25,96.108,574.215,570.015,0.0
49181.0,STARLINK-3059,PAYLOAD,2022-04-21 14:00:01,14.98353299,0.0003035,70.0013,270.0005,277.1759,252.4361,-0.0031683,-0.00037717,0.0,0 STARLINK-3059,1 49181U 21082BD  22111.58334491 -.00037717  00000-0 -31683-2 0  9990,2 49181  70.0013 270.0005 0003035 277.1759 252.4361 14.98353299  3592,6950.121,96.106,574.095,569.876,0.0
49181.0,STARLINK-3059,PAYLOAD,2022-04-21 22:00:00,14.98328653,0.000309,70.0009,269.16,282.7036,244.4087,0.0025301,0.00030225,0.0,0 STARLINK-3059,1 49181U 21082BD  22111.91667824  .00030225  00000-0  25301-2 0  9991,2 49181  70.0009 269.1600 0003090 282.7036 244.4087 14.98328653  3578,6950.196999999999,96.107,574.21,569.914,0.0
49181.0,STARLINK-3059,PAYLOAD,2022-04-22 14:00:01,14.98365281,0.0003013999999999,70.0011,267.4791,277.0682,245.04,-0.0051447,-0.00061003,0.0,0 STARLINK-3059,1 49181U 21082BD  22112.58334491 -.00061003  00000-0 -51447-2 0  9996,2 49181  70.0011 267.4791 0003014 277.0682 245.0400 14.98365281  3599,6950.084,96.105,574.044,569.854,0.0
49181.0,STARLINK-3059,PAYLOAD,2022-04-22 16:00:00,14.98334417,0.0003026,70.001,267.269,279.1558,332.3382,-0.00097692,-0.00011731,0.0,0 STARLINK-3059,1 49181U 21082BD  22112.66667824 -.00011731  00000-0 -97692-3 0  9990,2 49181  70.0010 267.2690 0003026 279.1558 332.3382 14.98334417 34895,6950.179,96.107,574.1469999999998,569.941,0.0
49181.0,STARLINK-3059,PAYLOAD,2022-04-23 14:00:01,14.98337806,0.0003185,70.0008,264.9579,276.4177,238.1262,-0.0029205,-0.00034775,0.0,0 STARLINK-3059,1 49181U 21082BD  22113.58334491 -.00034775  00000-0 -29205-2 0  9990,2 49181  70.0008 264.9579 0003185 276.4177 238.1262 14.98337806  3559,6950.169,96.106,574.247,569.82,0.0
49181.0,STARLINK-3059,PAYLOAD,2022-04-23 22:00:00,14.98317911,0.0003256,70.0004,264.1173,281.2056,230.816,0.0018064,0.00021521,0.0,0 STARLINK-3059,1 49181U 21082BD  22113.91667824  .00021521  00000-0  18064-2 0  9990,2 49181  70.0004 264.1173 0003256 281.2056 230.8160 14.98317911 35080,6950.23,96.108,574.3580000000002,569.832,0.0
49181.0,STARLINK-3059,PAYLOAD,2022-04-24 14:00:01,14.98364838,0.0003256,70.0007,262.4366,276.8726,230.1113,-0.0036341,-0.00043228,0.0,0 STARLINK-3059,1 49181U 21082BD  22114.58334491 -.00043228  00000-0 -36341-2 0  9993,2 49181  70.0007 262.4366 0003256 276.8726 230.1113 14.98364838  3583,6950.085,96.105,574.2130000000002,569.687,0.0
49181.0,STARLINK-3059,PAYLOAD,2022-04-24 22:00:00,14.98337038,0.0003224,70.0002,261.596,281.5793,222.9102,-0.0010297,-0.0001236,0.0,0 STARLINK-3059,1 49181U 21082BD  22114.91667824 -.00012360  00000-0 -10297-2 0  9994,2 49181  70.0002 261.5960 0003224 281.5793 222.9102 14.98337038 35236,6950.170999999999,96.107,574.2769999999998,569.795,0.0
49181.0,STARLINK-3059,PAYLOAD,2022-04-25 14:00:01,14.98356078,0.000318,70.0005,259.9153,277.9735,221.4767,-0.0033496,-0.00039861,0.0,0 STARLINK-3059,1 49181U 21082BD  22115.58334491 -.00039861  00000-0 -33496-2 0  9990,2 49181  70.0005 259.9153 0003180 277.9735 221.4767 14.98356078  3556,6950.111999999999,96.105,574.187,569.7669999999998,0.0
49181.0,STARLINK-3059,PAYLOAD,2022-04-25 22:00:00,14.983368400000002,0.0003121,70.0001,259.0748,282.6936,214.2535,-0.0018029,-0.00021543,0.0,0 STARLINK-3059,1 49181U 21082BD  22115.91667824 -.00021543  00000-0 -18029-2 0  9999,2 49181  70.0001 259.0748 0003121 282.6936 214.2535 14.98336840 35388,6950.172,96.107,574.206,569.868,0.0
49181.0,STARLINK-3059,PAYLOAD,2022-04-26 14:00:01,14.9834783,0.0003105,70.0006,257.394,279.2166,212.7513,-0.0025089,-0.00029915,0.0,0 STARLINK-3059,1 49181U 21082BD  22116.58335648 -.00029915  00000-0 -25089-2 0  9994,2 49181  70.0006 257.3940 0003105 279.2166 212.7513 14.98347830 35488,6950.138000000001,96.106,574.161,569.845,0.0
49181.0,STARLINK-3059,PAYLOAD,2022-04-26 22:00:00,14.98345241,0.0003164,70.0002,256.5534,283.1309,206.2651,-0.0030212,-0.00035972,0.0,0 STARLINK-3059,1 49181U 21082BD  22116.91667824 -.00035972  00000-0 -30212-2 0  9999,2 49181  70.0002 256.5534 0003164 283.1309 206.2651 14.98345241  3550,6950.146,96.106,574.21,569.812,0.0
49181.0,STARLINK-3059,PAYLOAD,2022-04-27 14:00:01,14.9833975,0.0003222,70.0008,254.8724,279.1642,205.2469,-0.0017147,-0.00020498,0.0,0 STARLINK-3059,1 49181U 21082BD  22117.58335648 -.00020498  00000-0 -17147-2 0  9998,2 49181  70.0008 254.8724 0003222 279.1642 205.2469 14.98339750 35636,6950.163000000001,96.106,574.2669999999998,569.788,0.0
